NORAD_CAT_ID,OBJECT_NAME,OBJECT_TYPE,EPOCH,MEAN_MOTION,ECCENTRICITY,INCLINATION,RA_OF_ASC_NODE,ARG_OF_PERICENTER,MEAN_ANOMALY,BSTAR,MEAN_MOTION_DOT,MEAN_MOTION_DDOT,TLE_LINE0,TLE_LINE1,TLE_LINE2,SEMIMAJOR_AXIS,PERIOD,APOGEE,PERIGEE,DECAYED
55655.0,STARLINK-5267,PAYLOAD,2023-11-15 12:29:57,14.98330231,0.0002825,69.9998,135.5429,270.8339,89.2496,-2.5156e-05,-3.93e-06,0.0,0 STARLINK-5267,1 55655U 23021AD  23319.52080640 -.00000393  00000-0 -25156-4 0  9997,2 55655  69.9998 135.5429 0002825 270.8339  89.2496 14.98330231 42688,6950.192,96.107,574.021,570.094,0.0
55655.0,STARLINK-5267,PAYLOAD,2023-11-15 18:54:29,14.98330724,0.0002815,69.9996,134.869,272.2026,87.881,-7.6169e-06,-1.84e-06,0.0,0 STARLINK-5267,1 55655U 23021AD  23319.78784551 -.00000184  00000-0 -76169-5 0  9996,2 55655  69.9996 134.8690 0002815 272.2026  87.8810 14.98330724 42722,6950.191,96.107,574.012,570.099,0.0
55655.0,STARLINK-5267,PAYLOAD,2023-11-16 10:55:50,14.98330075,0.0002772,69.9997,133.1859,272.3924,87.6917,9.2059e-06,1.7e-07,0.0,0 STARLINK-5267,1 55655U 23021AD  23320.45544496  .00000017  00000-0  92059-5 0  9993,2 55655  69.9997 133.1859 0002772 272.3924  87.6917 14.98330075 42525,6950.193,96.107,573.984,570.131,0.0
55655.0,STARLINK-5267,PAYLOAD,2023-11-16 22:08:46,14.98331819,0.0002884,69.9988,132.0073,272.4798,87.6031,2.6346e-05,2.21e-06,0.0,0 STARLINK-5267,1 55655U 23021AD  23320.92276283  .00000221  00000-0  26346-4 0  9993,2 55655  69.9988 132.0073 0002884 272.4798  87.6031 14.98331819 42899,6950.187,96.107,574.057,570.048,0.0
55655.0,STARLINK-5267,PAYLOAD,2023-11-17 12:33:59,14.9832948,0.0002855,69.9985,130.4924,272.0343,88.0489,-1.7415e-07,-9.5e-07,0.0,0 STARLINK-5267,1 55655U 23021AD  23321.52360473 -.00000095  00000-0 -17415-6 0  9995,2 55655  69.9985 130.4924 0002855 272.0343  88.0489 14.98329480 42683,6950.194,96.107,574.044,570.075,0.0
55655.0,STARLINK-5267,PAYLOAD,2023-11-17 17:22:23,14.98329913,0.0002872,69.9987,129.9877,270.7738,89.3092,6.6489e-06,-1.4e-07,0.0,0 STARLINK-5267,1 55655U 23021AD  23321.72388408 -.00000014  00000-0  66489-5 0  9999,2 55655  69.9987 129.9877 0002872 270.7738  89.3092 14.98329913 43010,6950.193,96.107,574.054,570.062,0.0
55655.0,STARLINK-5267,PAYLOAD,2023-11-18 12:36:00,14.98331761,0.0002888,69.9985,127.9679,269.8538,90.229,-1.9643e-06,-1.16e-06,0.0,0 STARLINK-5267,1 55655U 23021AD  23322.52500278 -.00000116  00000-0 -19643-5 0  9993,2 55655  69.9985 127.9679 0002888 269.8538  90.2290 14.98331761 42834,6950.187,96.107,574.06,570.045,0.0
55655.0,STARLINK-5267,PAYLOAD,2023-11-18 20:36:40,14.98331199,0.0002916,69.9987,127.1263,269.8753,90.2072,-1.4746e-05,-2.69e-06,0.0,0 STARLINK-5267,1 55655U 23021AD  23322.85880302 -.00000269  00000-0 -14746-4 0  9995,2 55655  69.9987 127.1263 0002916 269.8753  90.2072 14.98331199 43180,6950.189,96.107,574.081,570.028,0.0
55655.0,STARLINK-5267,PAYLOAD,2023-11-19 14:14:09,14.98329679,0.0002963,69.9987,125.2745,270.2337,89.8482,2.2908e-05,1.8e-06,0.0,0 STARLINK-5267,1 55655U 23021AD  23323.59316229  .00000180  00000-0  22908-4 0  9998,2 55655  69.9987 125.2745 0002963 270.2337  89.8482 14.98329679 43291,6950.194,96.107,574.118,570.0,0.0
55655.0,STARLINK-5267,PAYLOAD,2023-11-19 19:02:33,14.98331588,0.0002958,69.9988,124.7692,269.7178,90.3642,2.097e-05,1.57e-06,0.0,0 STARLINK-5267,1 55655U 23021AD  23323.79344094  .00000157  00000-0  20970-4 0  9992,2 55655  69.9988 124.7692 0002958 269.7178  90.3642 14.98331588 43025,6950.188,96.107,574.109,569.997,0.0
55655.0,STARLINK-5267,PAYLOAD,2023-11-19 20:38:41,14.98331639,0.0002957,69.9988,124.6009,269.758,90.324,2.0962e-05,1.57e-06,0.0,0 STARLINK-5267,1 55655U 23021AD  23323.86020079  .00000157  00000-0  20962-4 0  9995,2 55655  69.9988 124.6009 0002957 269.7580  90.3240 14.98331639 43337,6950.188,96.107,574.108,569.998,0.0
55655.0,STARLINK-5267,PAYLOAD,2023-11-20 14:16:10,14.98330018,0.0002956,69.9987,122.7491,269.8771,90.2049,9.9873e-07,-8.1e-07,0.0,0 STARLINK-5267,1 55655U 23021AD  23324.59456191 -.00000081  00000-0  99873-6 0  9990,2 55655  69.9987 122.7491 0002956 269.8771  90.2049 14.98330018 43440,6950.193,96.107,574.112,570.003,0.0
55655.0,STARLINK-5267,PAYLOAD,2023-11-20 19:04:34,14.98331234,0.0003001,69.9989,122.2447,271.0167,89.0648,3.1123e-08,-9.3e-07,0.0,0 STARLINK-5267,1 55655U 23021AD  23324.79484112 -.00000093  00000-0  31123-7 0  9994,2 55655  69.9989 122.2447 0003001 271.0167  89.0648 14.98331234 43176,6950.189,96.107,574.14,569.968,0.0
55655.0,STARLINK-5267,PAYLOAD,2023-11-20 20:40:42,14.98331594,0.0002999,69.9989,122.0763,271.0323,89.0492,3.8101e-06,-4.8e-07,0.0,0 STARLINK-5267,1 55655U 23021AD  23324.86160070 -.00000048  00000-0  38101-5 0  9997,2 55655  69.9989 122.0763 0002999 271.0323  89.0492 14.98331594 43484,6950.188,96.107,574.137,569.969,0.0
55655.0,STARLINK-5267,PAYLOAD,2023-11-21 12:42:02,14.98330735,0.0002982,69.9991,120.3931,271.1696,88.9122,-5.162e-06,-1.55e-06,0.0,0 STARLINK-5267,1 55655U 23021AD  23325.52920112 -.00000155  00000-0 -51620-5 0  9993,2 55655  69.9991 120.3931 0002982 271.1696  88.9122 14.98330735 43586,6950.191,96.107,574.128,569.983,0.0
55655.0,STARLINK-5267,PAYLOAD,2023-11-21 20:42:43,14.98334016,0.0002986,69.9991,119.5515,271.4984,88.5833,1.7986e-05,1.22e-06,0.0,0 STARLINK-5267,1 55655U 23021AD  23325.86299799  .00000122  00000-0  17986-4 0  9998,2 55655  69.9991 119.5515 0002986 271.4984  88.5833 14.98334016 43638,6950.18,96.107,574.121,569.97,0.0
55655.0,STARLINK-5267,PAYLOAD,2023-11-22 11:07:56,14.98324851,0.0002886,69.9994,118.0367,272.2381,87.8447,-5.7245e-05,-7.76e-06,0.0,0 STARLINK-5267,1 55655U 23021AD  23326.46384663 -.00000776  00000-0 -57245-4 0  9999,2 55655  69.9994 118.0367 0002886 272.2381  87.8447 14.98324851 43425,6950.209,96.107,574.08,570.068,0.0
55655.0,STARLINK-5267,PAYLOAD,2023-11-22 14:20:12,14.98324435,0.0002891,69.9994,117.7,272.2102,87.8726,-5.9476e-05,-8.02e-06,0.0,0 STARLINK-5267,1 55655U 23021AD  23326.59736731 -.00000802  00000-0 -59476-4 0  9998,2 55655  69.9994 117.7000 0002891 272.2102  87.8726 14.98324435 43745,6950.21,96.107,574.084,570.066,0.0
55655.0,STARLINK-5267,PAYLOAD,2023-11-22 19:08:36,14.98324743,0.0002667,69.9999,117.1958,267.9697,92.1157,-1.3164e-05,-2.5e-06,0.0,0 STARLINK-5267,1 55655U 23021AD  23326.79764642 -.00000250  00000-0 -13164-4 0  9993,2 55655  69.9999 117.1958 0002667 267.9697  92.1157 14.98324743 43779,6950.209,96.107,573.928,570.221,0.0
55655.0,STARLINK-5267,PAYLOAD,2023-11-23 11:09:56,14.98347285,0.0002566,69.9999,115.5128,261.5092,98.5776,-0.00024833,-3.056e-05,0.0,0 STARLINK-5267,1 55655U 23021AD  23327.46523997 -.00003056  00000-0 -24833-3 0  9995,2 55655  69.9999 115.5128 0002566 261.5092  98.5776 14.98347285 43578,6950.139,96.106,573.788,570.221,0.0
55655.0,STARLINK-5267,PAYLOAD,2023-11-23 14:22:12,14.983334,0.0002652,69.9993,115.1755,266.0547,94.0308,-2.773e-05,-4.24e-06,0.0,0 STARLINK-5267,1 55655U 23021AD  23327.59876141 -.00000424  00000-0 -27730-4 0  9997,2 55655  69.9993 115.1755 0002652 266.0547  94.0308 14.98333400 43896,6950.182,96.107,573.891,570.204,0.0
55655.0,STARLINK-5267,PAYLOAD,2023-11-23 19:10:37,14.98329317,0.0002632,70.0,114.6716,264.1035,95.9824,6.593e-05,6.94e-06,0.0,0 STARLINK-5267,1 55655U 23021AD  23327.79904145  .00000694  00000-0  65930-4 0  9996,2 55655  70.0000 114.6716 0002632 264.1035  95.9824 14.98329317 43624,6950.195,96.107,573.889,570.231,0.0
55655.0,STARLINK-5267,PAYLOAD,2023-11-24 14:24:14,14.98325753,0.0002741,70.0003,112.6521,262.5527,97.5321,8.1344e-05,8.78e-06,0.0,0 STARLINK-5267,1 55655U 23021AD  23328.60016262  .00000878  00000-0  81344-4 0  9992,2 55655  70.0003 112.6521 0002741 262.5527  97.5321 14.98325753 44045,6950.206,96.107,573.976,570.166,0.0
55655.0,STARLINK-5267,PAYLOAD,2023-11-24 19:12:38,14.98339096,0.0002694,70.0002,112.1466,261.8383,98.2471,-0.00015332,-1.922e-05,0.0,0 STARLINK-5267,1 55655U 23021AD  23328.80044025 -.00001922  00000-0 -15332-3 0  9998,2 55655  70.0002 112.1466 0002694 261.8383  98.2471 14.98339096 43774,6950.165,96.106,573.902,570.157,0.0
55655.0,STARLINK-5267,PAYLOAD,2023-11-25 14:26:14,14.98332625,0.000248,70.0012,110.1284,247.8189,112.2708,2.6832e-05,2.27e-06,0.0,0 STARLINK-5267,1 55655U 23021AD  23329.60155913  .00000227  00000-0  26832-4 0  9999,2 55655  70.0012 110.1284 0002480 247.8189 112.2708 14.98332625 44190,6950.185,96.107,573.773,570.326,0.0
55655.0,STARLINK-5267,PAYLOAD,2023-11-25 19:14:38,14.98338004,0.0002798,69.9999,109.6215,262.6738,97.4103,6.0449e-05,6.28e-06,0.0,0 STARLINK-5267,1 55655U 23021AD  23329.80183424  .00000628  00000-0  60449-4 0  9996,2 55655  69.9999 109.6215 0002798 262.6738  97.4103 14.98338004 44229,6950.168,96.106,573.978,570.088,0.0
55655.0,STARLINK-5267,PAYLOAD,2023-11-26 14:28:14,14.98336237,0.0002803,70.0001,107.6017,262.4122,97.6718,5.8822e-05,6.09e-06,0.0,0 STARLINK-5267,1 55655U 23021AD  23330.60295126  .00000609  00000-0  58822-4 0  9990,2 55655  70.0001 107.6017 0002803 262.4122  97.6718 14.98336237 44349,6950.174,96.107,573.987,570.09,0.0
55655.0,STARLINK-5267,PAYLOAD,2023-11-26 19:16:38,14.98339252,0.0002603,70.0006,107.0972,274.1661,85.92,9.9694e-05,1.097e-05,0.0,0 STARLINK-5267,1 55655U 23021AD  23330.80322879  .00001097  00000-0  99694-4 0  9992,2 55655  70.0006 107.0972 0002603 274.1661  85.9200 14.98339252 44070,6950.164,96.106,573.838,570.22,0.0
55655.0,STARLINK-5267,PAYLOAD,2023-11-27 11:18:00,14.98326809,0.0002559,70.0026,105.4195,246.0747,114.0145,-8.6656e-05,-1.127e-05,0.0,0 STARLINK-5267,1 55655U 23021AD  23331.47083994 -.00001127  00000-0 -86656-4 0  9998,2 55655  70.0026 105.4195 0002559 246.0747 114.0145 14.98326809 44171,6950.203,96.107,573.846,570.289,0.0
55655.0,STARLINK-5267,PAYLOAD,2023-11-27 14:30:17,14.98321659,0.0002709,70.0007,105.0783,256.363,103.7227,-0.00017929,-2.231e-05,0.0,0 STARLINK-5267,1 55655U 23021AD  23331.60436582 -.00002231  00000-0 -17929-3 0  9991,2 55655  70.0007 105.0783 0002709 256.3630 103.7227 14.98321659 44490,6950.219,96.108,573.966,570.201,0.0
